{"type": "FeatureCollection", "features": [ {"type": "Feature", "properties": {"norad_id": 34634, "name": "COSMOS 2251 DEB", "group": "cosmos-2251-debris", "lat": 55.96147418512448, "lon": 69.72990198954376, "alt_km": 703.6820900783023, "timestamp": "2025-12-07T14:37:05.598400+00:00", "meta": {"OBJECT_NAME": "COSMOS 2251 DEB", "OBJECT_ID": "1993-036XF", "EPOCH": "2025-12-06T22:38:17.773728", "MEAN_MOTION": 14.55631861, "ECCENTRICITY": 0.00444854, "INCLINATION": 74.0529, "RA_OF_ASC_NODE": 45.9466, "ARG_OF_PERICENTER": 155.039, "MEAN_ANOMALY": 17.338, "EPHEMERIS_TYPE": 0, "CLASSIFICATION_TYPE": "U", "NORAD_CAT_ID": 34634, "ELEMENT_SET_NO": 999, "REV_AT_EPOCH": 88697, "BSTAR": 0.00064867053, "MEAN_MOTION_DOT": 2.841e-05, "MEAN_MOTION_DDOT": 0}, "tle": {"line1": "1 34634U 93036XF  25340.94326127  .00002841  00000+0  64867-3 0  9997", "line2": "2 34634  74.0529  45.9466 0044485 155.0390  17.3380 14.55631861886971"}}, "geometry": {"type": "Point", "coordinates": [69.72990198954376, 55.96147418512448]}}, {"type": "Feature", "properties": {"norad_id": 34635, "name": "COSMOS 2251 DEB", "group": "cosmos-2251-debris", "lat": 47.070316963391306, "lon": 98.54017931545313, "alt_km": 666.4941857955891, "timestamp": "2025-12-07T14:37:05.598410+00:00", "meta": {"OBJECT_NAME": "COSMOS 2251 DEB", "OBJECT_ID": "1993-036XG", "EPOCH": "2025-12-06T17:41:13.992000", "MEAN_MOTION": 14.68131829, "ECCENTRICITY": 0.00291493, "INCLINATION": 74.0461, "RA_OF_ASC_NODE": 82.3143, "ARG_OF_PERICENTER": 153.075, "MEAN_ANOMALY": 329.3755, "EPHEMERIS_TYPE": 0, "CLASSIFICATION_TYPE": "U", "NORAD_CAT_ID": 34635, "ELEMENT_SET_NO": 999, "REV_AT_EPOCH": 73131, "BSTAR": 0.0024618294, "MEAN_MOTION_DOT": 0.00014242, "MEAN_MOTION_DDOT": 0}, "tle": {"line1": "1 34635U 93036XG  25340.73696750  .00014242  00000+0  24618-2 0  9994", "line2": "2 34635  74.0461  82.3143 0029149 153.0750 329.3755 14.68131829731314"}}, "geometry": {"type": "Point", "coordinates": [98.54017931545313, 47.070316963391306]}}, {"type": "Feature", "properties": {"norad_id": 34637, "name": "COSMOS 2251 DEB", "group": "cosmos-2251-debris", "lat": 28.8594442032417, "lon": 120.00953049704428, "alt_km": 722.9598542422091, "timestamp": "2025-12-07T14:37:05.598420+00:00", "meta": {"OBJECT_NAME": "COSMOS 2251 DEB", "OBJECT_ID": "1993-036XJ", "EPOCH": "2025-12-06T19:19:00.292800", "MEAN_MOTION": 14.60004377, "ECCENTRICITY": 0.00503776, "INCLINATION": 74.049, "RA_OF_ASC_NODE": 112.4735, "ARG_OF_PERICENTER": 184.4089, "MEAN_ANOMALY": 300.7701, "EPHEMERIS_TYPE": 0, "CLASSIFICATION_TYPE": "U", "NORAD_CAT_ID": 34637, "ELEMENT_SET_NO": 999, "REV_AT_EPOCH": 88440, "BSTAR": 0.0019512232, "MEAN_MOTION_DOT": 9.516e-05, "MEAN_MOTION_DDOT": 0}, "tle": {"line1": "1 34637U 93036XJ  25340.80486450  .00009516  00000+0  19512-2 0  9993", "line2": "2 34637  74.0490 112.4735 0050377 184.4089 300.7701 14.60004377884402"}}, "geometry": {"type": "Point", "coordinates": [120.00953049704428, 28.8594442032417]}}, {"type": "Feature", "properties": {"norad_id": 34641, "name": "COSMOS 2251 DEB", "group": "cosmos-2251-debris", "lat": 9.104982680201378, "lon": -91.23452077948006, "alt_km": 732.7166312310055, "timestamp": "2025-12-07T14:37:05.598430+00:00", "meta": {"OBJECT_NAME": "COSMOS 2251 DEB", "OBJECT_ID": "1993-036XN", "EPOCH": "2025-12-06T18:41:37.764384", "MEAN_MOTION": 14.51928421, "ECCENTRICITY": 0.00178091, "INCLINATION": 73.8389, "RA_OF_ASC_NODE": 93.0111, "ARG_OF_PERICENTER": 9.8292, "MEAN_ANOMALY": 142.9192, "EPHEMERIS_TYPE": 0, "CLASSIFICATION_TYPE": "U", "NORAD_CAT_ID": 34641, "ELEMENT_SET_NO": 999, "REV_AT_EPOCH": 88169, "BSTAR": 0.0018537971, "MEAN_MOTION_DOT": 7.472e-05, "MEAN_MOTION_DDOT": 0}, "tle": {"line1": "1 34641U 93036XN  25340.77890931  .00007472  00000+0  18538-2 0  9993", "line2": "2 34641  73.8389  93.0111 0017809   9.8292 142.9192 14.51928421881695"}}, "geometry": {"type": "Point", "coordinates": [-91.23452077948006, 9.104982680201378]}}, {"type": "Feature", "properties": {"norad_id": 34642, "name": "COSMOS 2251 DEB", "group": "cosmos-2251-debris", "lat": 26.580601819964233, "lon": 160.43810188211245, "alt_km": 751.6180104352215, "timestamp": "2025-12-07T14:37:05.598441+00:00", "meta": {"OBJECT_NAME": "COSMOS 2251 DEB", "OBJECT_ID": "1993-036XP", "EPOCH": "2025-12-06T11:09:03.378816", "MEAN_MOTION": 13.98947796, "ECCENTRICITY": 0.02077875, "INCLINATION": 74.0051, "RA_OF_ASC_NODE": 350.6706, "ARG_OF_PERICENTER": 171.9765, "MEAN_ANOMALY": 339.3192, "EPHEMERIS_TYPE": 0, "CLASSIFICATION_TYPE": "U", "NORAD_CAT_ID": 34642, "ELEMENT_SET_NO": 999, "REV_AT_EPOCH": 85205, "BSTAR": 0.0018241564, "MEAN_MOTION_DOT": 3.146e-05, "MEAN_MOTION_DDOT": 0}, "tle": {"line1": "1 34642U 93036XP  25340.46462244  .00003146  00000+0  18242-2 0  9998", "line2": "2 34642  74.0051 350.6706 0207787 171.9765 339.3192 13.98947796852055"}}, "geometry": {"type": "Point", "coordinates": [160.43810188211245, 26.580601819964233]}}, {"type": "Feature", "properties": {"norad_id": 34671, "name": "COSMOS 2251 DEB", "group": "cosmos-2251-debris", "lat": -0.20299026076731455, "lon": 144.1414307751244, "alt_km": 680.1205880711614, "timestamp": "2025-12-07T14:37:05.598451+00:00", "meta": {"OBJECT_NAME": "COSMOS 2251 DEB", "OBJECT_ID": "1993-036XR", "EPOCH": "2025-12-06T17:24:21.536064", "MEAN_MOTION": 14.66760427, "ECCENTRICITY": 0.00119294, "INCLINATION": 74.0261, "RA_OF_ASC_NODE": 145.9047, "ARG_OF_PERICENTER": 225.2226, "MEAN_ANOMALY": 149.4834, "EPHEMERIS_TYPE": 0, "CLASSIFICATION_TYPE": "U", "NORAD_CAT_ID": 34671, "ELEMENT_SET_NO": 999, "REV_AT_EPOCH": 88209, "BSTAR": 0.0028036655, "MEAN_MOTION_DOT": 0.0001565, "MEAN_MOTION_DDOT": 0}, "tle": {"line1": "1 34671U 93036XR  25340.72524926  .00015650  00000+0  28037-2 0  9991", "line2": "2 34671  74.0261 145.9047 0011929 225.2226 149.4834 14.66760427882099"}}, "geometry": {"type": "Point", "coordinates": [144.1414307751244, -0.20299026076731455]}}, {"type": "Feature", "properties": {"norad_id": 34672, "name": "COSMOS 2251 DEB", "group": "cosmos-2251-debris", "lat": 20.23231972317317, "lon": -38.925403727547156, "alt_km": 753.4358630965171, "timestamp": "2025-12-07T14:37:05.598461+00:00", "meta": {"OBJECT_NAME": "COSMOS 2251 DEB", "OBJECT_ID": "1993-036XS", "EPOCH": "2025-12-05T16:32:33.080064", "MEAN_MOTION": 14.36390754, "ECCENTRICITY": 0.0023475, "INCLINATION": 74.0334, "RA_OF_ASC_NODE": 318.5432, "ARG_OF_PERICENTER": 32.3823, "MEAN_ANOMALY": 145.4069, "EPHEMERIS_TYPE": 0, "CLASSIFICATION_TYPE": "U", "NORAD_CAT_ID": 34672, "ELEMENT_SET_NO": 999, "REV_AT_EPOCH": 65076, "BSTAR": 0.00046522033, "MEAN_MOTION_DOT": 1.341e-05, "MEAN_MOTION_DDOT": 0}, "tle": {"line1": "1 34672U 93036XS  25339.68927176  .00001341  00000+0  46522-3 0  9991", "line2": "2 34672  74.0334 318.5432 0023475  32.3823 145.4069 14.36390754650768"}}, "geometry": {"type": "Point", "coordinates": [-38.925403727547156, 20.23231972317317]}}, {"type": "Feature", "properties": {"norad_id": 34678, "name": "COSMOS 2251 DEB", "group": "cosmos-2251-debris", "lat": -37.46126829666886, "lon": 2.3534509518257596, "alt_km": 802.0297248442857, "timestamp": "2025-12-07T14:37:05.598471+00:00", "meta": {"OBJECT_NAME": "COSMOS 2251 DEB", "OBJECT_ID": "1993-036XY", "EPOCH": "2025-12-06T05:44:44.475360", "MEAN_MOTION": 14.30063457, "ECCENTRICITY": 0.00242902, "INCLINATION": 74.0381, "RA_OF_ASC_NODE": 17.5109, "ARG_OF_PERICENTER": 68.745, "MEAN_ANOMALY": 43.721, "EPHEMERIS_TYPE": 0, "CLASSIFICATION_TYPE": "U", "NORAD_CAT_ID": 34678, "ELEMENT_SET_NO": 999, "REV_AT_EPOCH": 87286, "BSTAR": 5.5847252e-05, "MEAN_MOTION_DOT": 1.19e-06, "MEAN_MOTION_DDOT": 0}, "tle": {"line1": "1 34678U 93036XY  25340.23940365  .00000119  00000+0  55847-4 0  9998", "line2": "2 34678  74.0381  17.5109 0024290  68.7450  43.7210 14.30063457872864"}}, "geometry": {"type": "Point", "coordinates": [2.3534509518257596, -37.46126829666886]}}, {"type": "Feature", "properties": {"norad_id": 34680, "name": "COSMOS 2251 DEB", "group": "cosmos-2251-debris", "lat": 38.16066866626644, "lon": 152.64719548530263, "alt_km": 693.0047781325466, "timestamp": "2025-12-07T14:37:05.598481+00:00", "meta": {"OBJECT_NAME": "COSMOS 2251 DEB", "OBJECT_ID": "1993-036YA", "EPOCH": "2025-12-06T10:37:40.709856", "MEAN_MOTION": 14.60516338, "ECCENTRICITY": 0.00069089, "INCLINATION": 74.0423, "RA_OF_ASC_NODE": 141.8787, "ARG_OF_PERICENTER": 236.4719, "MEAN_ANOMALY": 154.0251, "EPHEMERIS_TYPE": 0, "CLASSIFICATION_TYPE": "U", "NORAD_CAT_ID": 34680, "ELEMENT_SET_NO": 999, "REV_AT_EPOCH": 88236, "BSTAR": 0.0020988404, "MEAN_MOTION_DOT": 0.00010176, "MEAN_MOTION_DDOT": 0}, "tle": {"line1": "1 34680U 93036YA  25340.44283229  .00010176  00000+0  20988-2 0  9993", "line2": "2 34680  74.0423 141.8787 0006908 236.4719 154.0251 14.60516338882366"}}, "geometry": {"type": "Point", "coordinates": [152.64719548530263, 38.16066866626644]}}, {"type": "Feature", "properties": {"norad_id": 34681, "name": "COSMOS 2251 DEB", "group": "cosmos-2251-debris", "lat": -31.169454131555057, "lon": 130.4885715237183, "alt_km": 640.3068785841451, "timestamp": "2025-12-07T14:37:05.598491+00:00", "meta": {"OBJECT_NAME": "COSMOS 2251 DEB", "OBJECT_ID": "1993-036YB", "EPOCH": "2025-12-06T23:24:34.443360", "MEAN_MOTION": 14.82995627, "ECCENTRICITY": 0.00256504, "INCLINATION": 74.0634, "RA_OF_ASC_NODE": 301.7869, "ARG_OF_PERICENTER": 359.5271, "MEAN_ANOMALY": 71.34, "EPHEMERIS_TYPE": 0, "CLASSIFICATION_TYPE": "U", "NORAD_CAT_ID": 34681, "ELEMENT_SET_NO": 999, "REV_AT_EPOCH": 89185, "BSTAR": 0.0024913785, "MEAN_MOTION_DOT": 0.00020391, "MEAN_MOTION_DDOT": 0}, "tle": {"line1": "1 34681U 93036YB  25340.97539865  .00020391  00000+0  24914-2 0  9995", "line2": "2 34681  74.0634 301.7869 0025650 359.5271  71.3400 14.82995627891851"}}, "geometry": {"type": "Point", "coordinates": [130.4885715237183, -31.169454131555057]}}]}